ONEWEB-0032             
1 45141U 20008L   23288.91655353  .00000445  00000+0  12386-2 0  9999
2 45141  87.8892 229.9754 0002017  71.7596 288.3751 13.10372350180572
ONEWEB-0033             
1 45142U 20008M   23288.89055627  .00000053  00000+0  11550-3 0  9993
2 45142  87.8898 229.9883 0001742  68.4621 291.6692 13.10378345180489
ONEWEB-0035             
1 45143U 20008N   23288.84668689  .00000183  00000+0  48727-3 0  9997
2 45143  87.8888 229.9699 0001840  71.5905 288.5423 13.10372307181090
ONEWEB-0036             
1 45144U 20008P   23289.06603390  .00000735  00000+0  20691-2 0  9993
2 45144  87.8895 229.8877 0002050  80.1225 280.0134 13.10371924181529
ONEWEB-0038             
1 45145U 20008Q   23289.15962840  .00000392  00000+0  10713-2 0  9995
2 45145  87.8999 214.7520 0002737  67.4285 292.7133 13.11419794183327
ONEWEB-0039             
1 45146U 20008R   23289.35195336  .00000288  00000+0  78942-3 0  9999
2 45146  87.8893 229.8503 0002406  84.7913 275.3489 13.10378246181270
ONEWEB-0040             
1 45147U 20008S   23288.88730963 -.00000001  00000+0 -38817-4 0  9991
2 45147  87.8899 229.9281 0002036  76.2559 283.8795 13.10376488180136
ONEWEB-0041             
1 45148U 20008T   23289.07049199  .00000117  00000+0  16608-3 0  9997
2 45148  87.9459 206.4036 0018481 141.6641 218.5826 13.48418885187448
